# Made by eph2tle, compiled Oct  4 2021 08:54:50
# Run at Thu Oct  7 14:14:13 2021
#
#    The following TLEs (Two-Line Elements) were generated by fitting
# a numerically-integrated ephemeris,  based on the orbit given below,
# to the SDP4/SGP4 models.  Each TLE is good for the interval between
# its epoch and the epoch of the subsequent TLE (usually one day).
# The maximum deviation between the numerically integrated ephemerides
# and the TLE-based ephemeris, in kilometers,  is given for each TLE
# as the "worst residual".
#
#    This fitting is done using the 'eph2tle' code packaged with Find_Orb.
# The code has details on how the TLEs were computed :
#
#    https://github.com/Bill-Gray/find_orb/eph2tle.cpp
#
#    Be warned:  the error given is that between the numerically
# integrated ephems and the TLE model.  There will usually be at
# least some additional difference between the ephems and the actual
# motion of the satellite,  especially if the ephemerides are based
# on a short arc.  If the following orbital elements say something
# like "[based on] 10 observations 2015 Jan. 1-13",  and the TLEs
# are for 2015 May,  the extrapolation may be tenuous at best.  If
# your application requires a specific level of accuracy,  you may
# want to contact me;  I can give you some idea as to the fit of the
# underlying data (and possibly TLEs based on newer data).
#
#   You can usually find the underlying observational data,  and the
# fitted orbit,  residuals,  ephemerides,  and sometimes some comments
# about the object,  among the pages listed at
#
#    https://www.projectpluto.com/pluto/mpecs/pseudo.htm
#
#    WARNING:  for this object,  "normal" TLEs cannot be fitted.  (This
# usually means an object with an hyperbolic or nearly-parabolic orbit.)
# For this and similar cases,   an alternative model is used,  in which
# most of the traditional TLE data is replaced by six signed 8-digit hex
# numbers.  These six numbers are a state vector,  numerically integrated
# using a simplified force model.  This is necessary for objects at L2 or
# L1,  and sometimes for objects in high orbits where the SDP4/SGP4 model
# fails.  I'll be posting source code for this.  But be aware:  it's my
# own extension,  doesn't work with other code,  and is therefore used
# only when necessary.
#
#    Also,  if you use a TLE outside the "correct" time range (between
# its MJD and that of the next TLE),  all bets are off.  I've carefully
# computed and minimized the worst error over the "correct" time frame,
# but the ephemeris may (or may not) diverge wildly outside of it.
#
# Ephem range: 59468.000000 59580.000000 1.000000
# Created Thu Oct  7 14:12:31 2021
# Ephemeris start: 11 Sep 2021  0:00:00
# Ephemeris end:    1 Jan 2022  0:00:00
# Times are all TDT
# Positions/velocities are in ecliptic J2000
# Orbital elements:  Unk_Cislunar
#    Perigee 2021 Sep 12.00994 +/- 9.04e-5 TT =  0:14:18 (JD 2459469.50994)
# Epoch 2021 Sep 22.0 TT = JDT 2459479.5                        Find_Orb
# M 167.49518757 +/- 0.0018           (J2000 equator)
# n  16.76617659 +/- 5.85e-5          Peri.  203.45486 +/- 0.0014
# a326322.847 +/- 0.759               Node    26.79129 +/- 0.0006
# e   0.1389933 +/- 1.19e-6           Incl.   31.88918 +/- 0.00009
# P  21.47d                  H 29.0   G  0.15   U  6.2
# q 280966.148 +/- 0.456    Q 371679.546 +/- 1.18
# 48 of 98 observations 2021 Sept. 18-Oct. 7; mean residual 1".270
#
# 1 NoradU COSPAR   Epoch.epoch     dn/dt/2  d2n/dt2/6 BSTAR    T El# C
# 2 NoradU Inclina RAAscNode Eccent  ArgPeri MeanAno  MeanMotion Rev# C

# Worst residual: 275.25 km
# MJD 59468.000000 (2021 Sep 11  0:00)
Unk_Cislunar
1 99999U 00000    21253.99919926 -005FBZVW -003NSIVW -001PFIG6H 13768
2 99999                          +0005V4VG -0005M3IJ -0000XTM8     04

# Worst residual: 2374.15 km
# MJD 59469.000000 (2021 Sep 12  0:00)
Unk_Cislunar
1 99999U 00000    21254.99919926 -003PZXE5 -004VIEYV -001UCR75H 13769
2 99999                          +0008U8U2 -0003UTHB -0000AO7U     07

# Worst residual: 172.36 km
# MJD 59470.000000 (2021 Sep 13  0:00)
Unk_Cislunar
1 99999U 00000    21255.99919926 -001LNQTV -0054EXSC -0025LIGHH 13762
2 99999                          +0007VA6P +0000G38L -0001V3TP     06

# Worst residual: 39.08 km
# MJD 59471.000000 (2021 Sep 14  0:00)
Unk_Cislunar
1 99999U 00000    21256.99919926 +0006RG4P -004VD09N -002JHS7LH 13767
2 99999                          +00075XJZ +0001OLPN -00018XI8     08

# Worst residual: 11.95 km
# MJD 59472.000000 (2021 Sep 15  0:00)
Unk_Cislunar
1 99999U 00000    21257.99919926 +001U4C0K -004AW7GJ -002QC697H 13766
2 99999                          +0006IR4M +00031VA1 -0000BC6W     09

# Worst residual: 5.28 km
# MJD 59473.000000 (2021 Sep 16  0:00)
Unk_Cislunar
1 99999U 00000    21258.99919926 +003AAP15 -003F38IC -002OTSIZH 13762
2 99999                          +0005HNFY +00049HEF +0000NP9P     04

# Worst residual: 3.04 km
# MJD 59474.000000 (2021 Sep 17  0:00)
Unk_Cislunar
1 99999U 00000    21259.99919926 +004FZTIQ -002A942K -002F8KFDH 13769
2 99999                          +000446AJ +00054D5Q +0001JCE6     02

# Worst residual: 1.75 km
# MJD 59475.000000 (2021 Sep 18  0:00)
Unk_Cislunar
1 99999U 00000    21260.99919926 +0058UTJG -000ZTUTT -001YRTZEH 13764
2 99999                          +0002JMKW +0005JWMG +00028NL4     08

# Worst residual: 2.98 km
# MJD 59476.000000 (2021 Sep 19  0:00)
Unk_Cislunar
1 99999U 00000    21261.99919926 +005NU7XD +000CI1H1 -001D4XJXH 13769
2 99999                          +0000XBPU +0005KHA3 +0002QBYY     07

# Worst residual: 3.46 km
# MJD 59477.000000 (2021 Sep 20  0:00)
Unk_Cislunar
1 99999U 00000    21262.99919926 +005P1JK6 +001NCMMW -000O770QH 13768
2 99999                          -0000MN2S +00057XJZ +0003073J     05

# Worst residual: 3.15 km
# MJD 59478.000000 (2021 Sep 21  0:00)
Unk_Cislunar
1 99999U 00000    21263.99919926 +005DDQX0 +002TU9EK +00027DJ2H 13768
2 99999                          -00021IHM +0004KIUR +00032NLX     00

# Worst residual: 2.35 km
# MJD 59479.000000 (2021 Sep 22  0:00)
Unk_Cislunar
1 99999U 00000    21264.99919926 +004QB0YO +003TMHSR +000SDCLSH 13769
2 99999                          -00039J21 +0003ODQO +0002YB57     00

# Worst residual: 2.04 km
# MJD 59480.000000 (2021 Sep 23  0:00)
Unk_Cislunar
1 99999U 00000    21265.99919926 +003TLZSG +004KTVK4 +001GQGTNH 13765
2 99999                          -00049IDS +0002LAS9 +0002NQ7I     01

# Worst residual: 2.25 km
# MJD 59481.000000 (2021 Sep 24  0:00)
Unk_Cislunar
1 99999U 00000    21266.99919926 +002PC82C +0051YXUX +0021UU8MH 13763
2 99999                          -00050I8R +0001CQ7P +00027CD8     06

# Worst residual: 2.34 km
# MJD 59482.000000 (2021 Sep 25  0:00)
Unk_Cislunar
1 99999U 00000    21267.99919926 +001FRND4 +0057VIEX +002IDKXAH 13764
2 99999                          -0005HHC3 -000005IN +0001LEZD     03

# Worst residual: 2.17 km
# MJD 59483.000000 (2021 Sep 26  0:00)
Unk_Cislunar
1 99999U 00000    21268.99919926 +0003GR0Y +0051MVR4 +002SZB7XH 13768
2 99999                          -0005MYM3 -0001GAT4 +0000U1EY     03

# Worst residual: 2.14 km
# MJD 59484.000000 (2021 Sep 27  0:00)
Unk_Cislunar
1 99999U 00000    21269.99919926 -0018JOI3 +004ILUH9 +002WCYFMH 13765
2 99999                          -0005EJVW -0002YH20 -00002SBV     01

# Worst residual: 1.92 km
# MJD 59485.000000 (2021 Sep 28  0:00)
Unk_Cislunar
1 99999U 00000    21270.99919926 -002GI4NB +003MJDTM +002R7X66H 13760
2 99999                          -0004ODG6 -0004GFQZ -00014VFZ     09

# Worst residual: 1.25 km
# MJD 59486.000000 (2021 Sep 29  0:00)
Unk_Cislunar
1 99999U 00000    21271.99919926 -003FHWFM +002DZMNA +002CEOQLH 13768
2 99999                          -0003AST0 -0005TBC8 -0002B11Q     00

# Worst residual: 0.71 km
# MJD 59487.000000 (2021 Sep 30  0:00)
Unk_Cislunar
1 99999U 00000    21272.99919926 -003Z5PC6 +000V9RF6 +001NCM6WH 13768
2 99999                          -00013R93 -0006QUWN -0003H6D0     01

# Worst residual: 0.46 km
# MJD 59488.000000 (2021 Oct  1  0:00)
Unk_Cislunar
1 99999U 00000    21273.99919926 -003W4TJ2 -000RX8RG +000P3Y8MH 13762
2 99999                          +0001X87X -0006QZR7 -0004D7H2     01

# Worst residual: 0.36 km
# MJD 59489.000000 (2021 Oct  2  0:00)
Unk_Cislunar
1 99999U 00000    21274.99919926 -0030YACK -002909EF -000DXJ78H 13764
2 99999                          +00059CUT -00059CV0 -0004I3UP     04

# Worst residual: 0.35 km
# MJD 59490.000000 (2021 Oct  3  0:00)
Unk_Cislunar
1 99999U 00000    21275.99919926 -001FWIXK -0036HLFT -001DH71UH 13766
2 99999                          +0007OG1T -0002B7BD -0003JNHL     09

# Worst residual: 0.40 km
# MJD 59491.000000 (2021 Oct  4  0:00)
Unk_Cislunar
1 99999U 00000    21276.99919926 +000I3FC0 -003BTQA9 -0020X1WMH 13765
2 99999                          +00086SWH +00010VHU -0001T6XS     00

# Worst residual: 0.49 km
# MJD 59492.000000 (2021 Oct  5  0:00)
Unk_Cislunar
1 99999U 00000    21277.99919926 +002CQRXT -002R3HT7 -0028NDE8H 13760
2 99999                          +0007168K +0003LB17 -00000R8L     09

# Worst residual: 0.58 km
# MJD 59493.000000 (2021 Oct  6  0:00)
Unk_Cislunar
1 99999U 00000    21278.99919926 +003TD3WM -001P0HEJ -0022GGB5H 13765
2 99999                          +00052YLX +00051OXA +0001DGLY     01

# Worst residual: 0.66 km
# MJD 59494.000000 (2021 Oct  7  0:00)
Unk_Cislunar
1 99999U 00000    21279.99919926 +004S6UGL -000EIVA5 -001MAC5ZH 13761
2 99999                          +0002ZM2B +0005L53Q +0002ALL5     01

# Worst residual: 0.69 km
# MJD 59495.000000 (2021 Oct  8  0:00)
Unk_Cislunar
1 99999U 00000    21280.99919926 +0059HRG7 +000XQTVR -000ZYJ1WH 13763
2 99999                          +00011YYH +0005I490 +0002TDE1     00

# Worst residual: 0.63 km
# MJD 59496.000000 (2021 Oct  9  0:00)
Unk_Cislunar
1 99999U 00000    21281.99919926 +005B5ZTL +0027F5OQ -000AI0W6H 13762
2 99999                          -0000MDT9 +00050LIO +000317NY     03

